satname,norad_id,inclination_deg,eccentricity,mean_motion_rev_per_day,perigee_km,apogee_km,l1,l2
STARLINK-1206,45204,53.0384,0.0002369,15.94759917,287.40399463935046,290.5628763016766,1 45204U 20012AC  25253.58335648  .00231543  31929-4  59722-3 0  9993,2 45204  53.0384  66.7556 0002369 107.2484 231.4905 15.94759917  6064
STARLINK-1208,45205,53.0393,0.0004389,15.90398805,298.23448848732914,304.09758069109193,1 45205U 20012AD  25253.58335648  .00291355  42399-4  94080-3 0  9990,2 45205  53.0393  67.6879 0004389 105.1499  41.0455 15.90398805  6055
STARLINK-1209,45206,53.0557,0.0001557,15.06400529,546.1316601119097,548.2882131479764,1 45206U 20012AE  25253.28006848 -.00000858  00000+0 -38712-4 0  9992,2 45206  53.0557  96.5132 0001557  95.7475 264.3692 15.06400529307256
STARLINK-1210,45207,53.0292,0.0009568,15.442303,427.12311376325124,440.1581314218438,1 45207U 20012AF  25252.79821199  .00120601  00000+0  25496-2 0  9992,2 45207  53.0292  74.7045 0009568 195.6316 164.4395 15.44230300308473
STARLINK-1231,45212,53.0521,0.0003802,15.08382802,538.510503740169,543.7719228935748,1 45212U 20012AL  25253.34952397  .00022621  00000+0  14525-2 0  9999,2 45212  53.0521 115.9024 0003802 127.4043 232.7293 15.08382802307890
STARLINK-1271,45217,53.0535,0.0001343,15.06398548,546.2859332037369,548.1460830217165,1 45217U 20012AR  25253.32245242  .00001960  00000+0  15046-3 0  9999,2 45217  53.0535 116.3184 0001343  83.6791 276.4351 15.06398548307930
STARLINK-1191,45222,53.054,0.0001279,15.06399029,546.3287814538389,548.1002863762151,1 45222U 20012AW  25253.26531732 -.00000841  00000+0 -37594-4 0  9992,2 45222  53.0540  96.5740 0001279  89.2071 270.9065 15.06399029308207
STARLINK-1212,45223,53.0554,0.000147,15.06405092,546.1779277917158,548.213975679525,1 45223U 20012AX  25253.28382751 -.00000698  00000+0 -27959-4 0  9994,2 45223  53.0554  97.1470 0001470  92.2964 267.8194 15.06405092308204
STARLINK-1215,45225,53.0531,9.13e-05,15.06399118,546.5819765724218,547.8465457127068,1 45225U 20012AZ  25252.97415112  .00009906  00000+0  68298-3 0  9998,2 45225  53.0531  97.8820 0000913 113.5722 246.5363 15.06399118308110
STARLINK-1217,45226,53.0459,0.0004585,15.82176348,321.21421452312006,327.3603375842613,1 45226U 20012BA  25253.58335648  .00192789  00000+0  90200-3 0  9992,2 45226  53.0459  52.1316 0004585 140.2817  30.6568 15.82176348  6032
STARLINK-1221,45227,53.0692,0.0004904,15.34749096,458.3116106894904,465.02008932477656,1 45227U 20012BB  25252.64589968  .00011986  00000+0  36125-3 0  9990,2 45227  53.0692  42.7970 0004904 147.0820 213.0487 15.34749096308841
STARLINK-1222,45228,53.0546,0.000146,15.06392509,546.2234126280546,548.2456211109802,1 45228U 20012BC  25253.27270113  .00000697  00000+0  65663-4 0  9997,2 45228  53.0546  96.5404 0001460  89.8357 270.2799 15.06392509308091
STARLINK-1226,45229,53.0536,0.0001775,15.06392787,546.0044115396176,548.4629181256332,1 45229U 20012BD  25253.30219312  .00001642  00000+0  12917-3 0  9990,2 45229  53.0536  96.4081 0001775  82.9607 277.1584 15.06392787308100
STARLINK-1227,45230,53.0525,0.000131,15.06406144,546.2855093328717,548.0999457214839,1 45230U 20012BE  25253.29849802  .00001071  00000+0  90791-4 0  9996,2 45230  53.0525  96.4237 0001310  91.5288 268.5851 15.06406144308226
STARLINK-1238,45233,53.0386,0.0003206,15.89868564,300.50917866524196,304.7928999560472,1 45233U 20012BH  25253.58335648  .00364843  00000+0  11508-2 0  9995,2 45233  53.0386  68.8727 0003206 106.7128 323.6162 15.89868564  6052
STARLINK-1246,45235,53.0538,0.0001386,15.06399289,546.2538834395764,548.1735906638878,1 45235U 20012BK  25253.37958755  .00001469  00000+0  11748-3 0  9993,2 45235  53.0538 136.0619 0001386  89.6149 270.4999 15.06399289307682
STARLINK-1247,45236,53.0418,0.0002428,15.89178787,302.9615152139668,306.2066445703631,1 45236U 20012BL  25253.58335648  .00312736  00000+0  10278-2 0  9995,2 45236  53.0418  48.7647 0002428 123.1855 336.6395 15.89178787  6057
STARLINK-1270,45237,53.0526,0.0001156,15.0639696,546.4203037457437,548.0214464864703,1 45237U 20012BM  25252.98518927 -.00000581  00000+0 -20130-4 0  9996,2 45237  53.0526  97.8321 0001156  77.2765 282.8354 15.06396960308166
STARLINK-1279,45360,53.0536,0.0001769,15.06395156,546.0013073542041,548.4515009265897,1 45360U 20019A   25253.34180044 -.00000149  00000+0  88816-5 0  9991,2 45360  53.0536 226.2294 0001769  94.2250 265.8941 15.06395156302959
STARLINK-1301,45361,53.0542,0.0001246,15.06396664,546.3588826123969,548.0846820209499,1 45361U 20019B   25253.32982318 -.00000451  00000+0 -11406-4 0  9991,2 45361  53.0542 236.2864 0001246  81.5003 278.6127 15.06396664302825
STARLINK-1306,45362,53.0519,0.0007963,15.5328538,401.7382852424107,412.544519626128,1 45362U 20019C   25253.58335648  .00112506  00000+0  17354-2 0  9997,2 45362  53.0519 242.2264 0007963  31.1522 121.2438 15.53285380  5967
STARLINK-1262,45366,53.0541,0.0001218,15.06404082,546.3555412938931,548.0425531549963,1 45366U 20019G   25253.42749402  .00000904  00000+0  79536-4 0  9991,2 45366  53.0541 255.8455 0001218  85.3268 274.7860 15.06404082302562
STARLINK-1273,45367,53.0531,0.0001339,15.06399031,546.2872232157379,548.1418323548796,1 45367U 20019H   25253.38327163  .00000066  00000+0  23300-4 0  9990,2 45367  53.0531 256.0497 0001339  86.8473 273.2669 15.06399031302556
STARLINK-1276,45368,53.0543,0.0001301,15.06395039,546.3257729049592,548.1277525560226,1 45368U 20019J   25253.42012664 -.00000694  00000+0 -27710-4 0  9991,2 45368  53.0543 255.8819 0001301  89.1086 271.0053 15.06395039302568
STARLINK-1277,45369,53.0526,0.0001374,15.06392457,546.2831301750384,548.1862223116696,1 45369U 20019K   25253.28015957  .00005945  00000+0  41775-3 0  9992,2 45369  53.0526 257.1387 0001374  89.2178 270.8969 15.06392457302539
STARLINK-1281,45370,53.0544,0.0001352,15.06383598,546.325514240516,548.19814208365,1 45370U 20019L   25253.40907982 -.00001601  00000+0 -88653-4 0  9990,2 45370  53.0544 255.9314 0001352  88.2385 271.8759 15.06383598302569
STARLINK-1300,45374,53.0544,0.0001402,15.06399844,546.2411021209946,548.1829699907048,1 45374U 20019Q   25253.43118547  .00000466  00000+0  50144-4 0  9998,2 45374  53.0544 255.8301 0001402  90.3080 269.8070 15.06399844302564
STARLINK-1302,45375,53.0539,0.0001269,15.06408306,546.3072778599662,548.0649248630916,1 45375U 20019R   25253.31323417  .00001864  00000+0  14394-3 0  9999,2 45375  53.0539 256.3627 0001269  78.4293 281.6839 15.06408306302547
STARLINK-1304,45376,53.0522,9.75e-05,15.06425812,546.4572352342102,547.8076627767659,1 45376U 20019S   25253.26529549  .00003035  00000+0  22240-3 0  9999,2 45376  53.0522 256.5779 0000975  81.5850 278.5249 15.06425812302537
STARLINK-1305,45377,53.0534,0.0001569,15.06402234,546.1181249440297,548.2912971729593,1 45377U 20019T   25253.42381421  .00001738  00000+0  13552-3 0  9997,2 45377  53.0534 255.8627 0001569  80.1551 279.9615 15.06402234302566
STARLINK-1319,45379,53.0538,0.0001484,15.06398165,546.189459394096,548.2449045153007,1 45379U 20019V   25253.41645891  .00003036  00000+0  22262-3 0  9993,2 45379  53.0538 255.8995 0001484  87.7830 272.3329 15.06398165302565
STARLINK-1258,45381,53.045,0.0007799,15.93699129,286.7395976127018,297.1435862003573,1 45381U 20019X   25253.58335648  .00359616  61343-4  97406-3 0  9992,2 45381  53.0450 186.8468 0007799 100.2426 262.2172 15.93699129  5953
STARLINK-1266,45383,53.0544,0.0001509,15.06406262,546.1473336753443,548.2373980779648,1 45383U 20019Z   25253.35194956  .00001956  00000+0  15017-3 0  9991,2 45383  53.0544 236.1885 0001509  88.2761 271.8401 15.06406262302826
STARLINK-1267,45384,53.0544,0.0001435,15.063966,546.2281894547777,548.215767481598,1 45384U 20019AA  25253.33727556  .00000020  00000+0  20214-4 0  9995,2 45384  53.0544 236.9104 0001435  94.5169 265.5984 15.06396600302818
STARLINK-1272,45386,53.0543,0.0001353,15.06396087,546.2865494631469,548.1605520281782,1 45386U 20019AC  25253.34456962  .00000110  00000+0  26284-4 0  9991,2 45386  53.0543 236.2229 0001353  94.1091 266.0053 15.06396087302822
STARLINK-1274,45387,53.0417,0.000745,15.23789603,489.3023720051424,499.5424855540241,1 45387U 20019AD  25253.31730870  .00055530  00000+0  22725-2 0  9992,2 45387  53.0417 228.8273 0007450  26.4109 333.7265 15.23789603302928
STARLINK-1280,45388,53.054,0.0001331,15.06394268,546.3073595170872,548.1508919797607,1 45388U 20019AE  25253.40169987  .00000069  00000+0  23504-4 0  9993,2 45388  53.0540 255.9660 0001331  86.0745 274.0397 15.06394268302548
STARLINK-1283,45389,53.0542,0.0001283,15.06390635,546.3517345606515,548.1287863656871,1 45389U 20019AF  25253.24874521 -.00000989  00000+0 -47504-4 0  9992,2 45389  53.0542 236.6486 0001283  87.1044 273.0092 15.06390635302818
STARLINK-1284,45390,53.0544,0.0001329,15.06401811,546.2856294039748,548.1263855753659,1 45390U 20019AG  25253.35561883  .00000395  00000+0  45416-4 0  9999,2 45390  53.0544 236.1709 0001329  89.4297 270.6844 15.06401811302829
STARLINK-1292,45394,53.0515,0.0003999,15.69128864,358.6951154833505,364.08538937984486,1 45394U 20019AL  25253.58335648  .00125154  00000+0  10468-2 0  9994,2 45394  53.0515 212.2625 0003999  98.2621 119.0988 15.69128864  5993
STARLINK-1297,45395,53.0549,0.0001158,15.06397574,546.4170370648262,548.020949512872,1 45395U 20019AM  25253.25979229 -.00003149  00000+0 -19264-3 0  9993,2 45395  53.0549 236.6011 0001158  98.6095 261.5026 15.06397574301996
STARLINK-1307,45397,53.0536,0.0001398,15.06410797,546.2103077837073,548.1466259882482,1 45397U 20019AP  25253.25241633  .00002293  00000+0  17272-3 0  9990,2 45397  53.0536 236.6322 0001398  83.9066 276.2082 15.06410797302630
STARLINK-1312,45398,53.051,0.0011473,15.66686551,360.65232178111273,376.1329086361702,1 45398U 20019AQ  25253.58335648  .00137439  00000+0  12638-2 0  9998,2 45398  53.0510 211.5100 0011473  38.2072 126.8029 15.66686551  5948
